[{"OBJECT_NAME":"STARLINK-34818","OBJECT_ID":"2025-179D","EPOCH":"2026-03-09T17:06:09.215424","MEAN_MOTION":15.05647088,"ECCENTRICITY":0.00012755,"INCLINATION":97.6024,"RA_OF_ASC_NODE":113.0164,"ARG_OF_PERICENTER":89.464,"MEAN_ANOMALY":270.6733,"EPHEMERIS_TYPE":0,"CLASSIFICATION_TYPE":"U","NORAD_CAT_ID":65238,"ELEMENT_SET_NO":999,"REV_AT_EPOCH":3155,"BSTAR":6.6697902e-5,"MEAN_MOTION_DOT":9.02e-6,"MEAN_MOTION_DDOT":0},{"OBJECT_NAME":"NEONSAT-1A","OBJECT_ID":"2026-019A","EPOCH":"2026-03-09T21:53:31.879392","MEAN_MOTION":15.0780294,"ECCENTRICITY":0.00137261,"INCLINATION":97.411,"RA_OF_ASC_NODE":192.4819,"ARG_OF_PERICENTER":167.4713,"MEAN_ANOMALY":192.686,"EPHEMERIS_TYPE":0,"CLASSIFICATION_TYPE":"U","NORAD_CAT_ID":67614,"ELEMENT_SET_NO":999,"REV_AT_EPOCH":585,"BSTAR":0.00027109929,"MEAN_MOTION_DOT":4.096e-5,"MEAN_MOTION_DDOT":0}]
